{
  "type": "FeatureCollection",
  "features": [
    {
      "type": "Feature",
      "properties": {
        "norad_id": 66802,
        "name": "STARLINK-35604",
        "group": "last-30-days",
        "lat": -29.179397613386584,
        "lon": -142.6973353832384,
        "alt_km": 306.79205930158605,
        "timestamp": "2025-12-12T09:49:07.482582+00:00",
        "meta_object_name": "STARLINK-35604",
        "meta_object_id": "2025-278M",
        "meta_epoch": "2025-12-12T02:28:02.188704",
        "meta_mean_motion": 15.89058129,
        "meta_eccentricity": 0.0002189,
        "meta_inclination": 42.9979,
        "meta_ra_of_asc_node": 256.0204,
        "meta_arg_of_pericenter": 291.8266,
        "meta_mean_anomaly": 68.2375,
        "meta_ephemeris_type": 0,
        "meta_classification_type": "U",
        "meta_norad_cat_id": 66802,
        "meta_element_set_no": 999,
        "meta_rev_at_epoch": 173,
        "meta_bstar": -0.0012457,
        "meta_mean_motion_dot": -0.00355618,
        "meta_mean_motion_ddot": 0,
        "tle_line1": "1 66802U 25278M   25346.10280311 -.00355618  00000+0 -12457-2 0  9992",
        "tle_line2": "2 66802  42.9979 256.0204 0002189 291.8266  68.2375 15.89058129  1737"
      },
      "geometry": {
        "type": "Point",
        "coordinates": [
          -142.6973353832384,
          -29.179397613386584
        ]
      }
    },
    {
      "type": "Feature",
      "properties": {
        "norad_id": 66803,
        "name": "STARLINK-35565",
        "group": "last-30-days",
        "lat": -26.58172385719319,
        "lon": -138.36979227037696,
        "alt_km": 306.48265547310075,
        "timestamp": "2025-12-12T09:49:07.482592+00:00",
        "meta_object_name": "STARLINK-35565",
        "meta_object_id": "2025-278N",
        "meta_epoch": "2025-12-12T02:26:53.319264",
        "meta_mean_motion": 15.89117119,
        "meta_eccentricity": 0.000226,
        "meta_inclination": 42.9973,
        "meta_ra_of_asc_node": 256.0139,
        "meta_arg_of_pericenter": 288.019,
        "meta_mean_anomaly": 72.0438,
        "meta_ephemeris_type": 0,
        "meta_classification_type": "U",
        "meta_norad_cat_id": 66803,
        "meta_element_set_no": 999,
        "meta_rev_at_epoch": 173,
        "meta_bstar": -0.001206,
        "meta_mean_motion_dot": -0.00345719,
        "meta_mean_motion_ddot": 0,
        "tle_line1": "1 66803U 25278N   25346.10200601 -.00345719  00000+0 -12060-2 0  9998",
        "tle_line2": "2 66803  42.9973 256.0139 0002260 288.0190  72.0438 15.89117119  1731"
      },
      "geometry": {
        "type": "Point",
        "coordinates": [
          -138.36979227037696,
          -26.58172385719319
        ]
      }
    },
    {
      "type": "Feature",
      "properties": {
        "norad_id": 66804,
        "name": "STARLINK-36038",
        "group": "last-30-days",
        "lat": -25.173887308751496,
        "lon": -136.189614315398,
        "alt_km": 307.3012500945006,
        "timestamp": "2025-12-12T09:49:07.482602+00:00",
        "meta_object_name": "STARLINK-36038",
        "meta_object_id": "2025-278P",
        "meta_epoch": "2025-12-12T03:56:45.953664",
        "meta_mean_motion": 15.88978852,
        "meta_eccentricity": 0.0001934,
        "meta_inclination": 42.9974,
        "meta_ra_of_asc_node": 255.6202,
        "meta_arg_of_pericenter": 263.0551,
        "meta_mean_anomaly": 97.0103,
        "meta_ephemeris_type": 0,
        "meta_classification_type": "U",
        "meta_norad_cat_id": 66804,
        "meta_element_set_no": 999,
        "meta_rev_at_epoch": 174,
        "meta_bstar": -0.00127,
        "meta_mean_motion_dot": -0.0036085,
        "meta_mean_motion_ddot": 0,
        "tle_line1": "1 66804U 25278P   25346.16442076 -.00360850  00000+0 -12700-2 0  9993",
        "tle_line2": "2 66804  42.9974 255.6202 0001934 263.0551  97.0103 15.88978852  1745"
      },
      "geometry": {
        "type": "Point",
        "coordinates": [
          -136.189614315398,
          -25.173887308751496
        ]
      }
    },
    {
      "type": "Feature",
      "properties": {
        "norad_id": 66805,
        "name": "STARLINK-36049",
        "group": "last-30-days",
        "lat": -22.49740361529797,
        "lon": -132.29855858942827,
        "alt_km": 307.59012384523703,
        "timestamp": "2025-12-12T09:49:07.482613+00:00",
        "meta_object_name": "STARLINK-36049",
        "meta_object_id": "2025-278Q",
        "meta_epoch": "2025-12-12T03:55:38.273088",
        "meta_mean_motion": 15.88983487,
        "meta_eccentricity": 0.0002774,
        "meta_inclination": 42.9973,
        "meta_ra_of_asc_node": 255.6134,
        "meta_arg_of_pericenter": 247.1655,
        "meta_mean_anomaly": 112.8927,
        "meta_ephemeris_type": 0,
        "meta_classification_type": "U",
        "meta_norad_cat_id": 66805,
        "meta_element_set_no": 999,
        "meta_rev_at_epoch": 174,
        "meta_bstar": -0.0017498,
        "meta_mean_motion_dot": -0.00490214,
        "meta_mean_motion_ddot": 0,
        "tle_line1": "1 66805U 25278Q   25346.16363742 -.00490214  00000+0 -17498-2 0  9993",
        "tle_line2": "2 66805  42.9973 255.6134 0002774 247.1655 112.8927 15.88983487  1740"
      },
      "geometry": {
        "type": "Point",
        "coordinates": [
          -132.29855858942827,
          -22.49740361529797
        ]
      }
    },
    {
      "type": "Feature",
      "properties": {
        "norad_id": 66806,
        "name": "STARLINK-36069",
        "group": "last-30-days",
        "lat": -24.00100532156745,
        "lon": -134.44543619679945,
        "alt_km": 307.24917406589793,
        "timestamp": "2025-12-12T09:49:07.482625+00:00",
        "meta_object_name": "STARLINK-36069",
        "meta_object_id": "2025-278R",
        "meta_epoch": "2025-12-12T03:56:16.425600",
        "meta_mean_motion": 15.89002205,
        "meta_eccentricity": 0.0001897,
        "meta_inclination": 42.9976,
        "meta_ra_of_asc_node": 255.6184,
        "meta_arg_of_pericenter": 261.0363,
        "meta_mean_anomaly": 99.0296,
        "meta_ephemeris_type": 0,
        "meta_classification_type": "U",
        "meta_norad_cat_id": 66806,
        "meta_element_set_no": 999,
        "meta_rev_at_epoch": 174,
        "meta_bstar": -0.0012928,
        "meta_mean_motion_dot": -0.00367475,
        "meta_mean_motion_ddot": 0,
        "tle_line1": "1 66806U 25278R   25346.16407900 -.00367475  00000+0 -12928-2 0  9994",
        "tle_line2": "2 66806  42.9976 255.6184 0001897 261.0363  99.0296 15.89002205  1741"
      },
      "geometry": {
        "type": "Point",
        "coordinates": [
          -134.44543619679945,
          -24.00100532156745
        ]
      }
    },
    {
      "type": "Feature",
      "properties": {
        "norad_id": 66807,
        "name": "STARLINK-36000",
        "group": "last-30-days",
        "lat": -19.543612331854625,
        "lon": -128.31244687875108,
        "alt_km": 305.9234719247406,
        "timestamp": "2025-12-12T09:49:07.482640+00:00",
        "meta_object_name": "STARLINK-36000",
        "meta_object_id": "2025-278S",
        "meta_epoch": "2025-12-12T02:23:59.015040",
        "meta_mean_motion": 15.89214605,
        "meta_eccentricity": 0.0002113,
        "meta_inclination": 42.9976,
        "meta_ra_of_asc_node": 255.9971,
        "meta_arg_of_pericenter": 292.5493,
        "meta_mean_anomaly": 67.5158,
        "meta_ephemeris_type": 0,
        "meta_classification_type": "U",
        "meta_norad_cat_id": 66807,
        "meta_element_set_no": 999,
        "meta_rev_at_epoch": 173,
        "meta_bstar": -0.001377,
        "meta_mean_motion_dot": -0.00394473,
        "meta_mean_motion_ddot": 0,
        "tle_line1": "1 66807U 25278S   25346.09998860 -.00394473  00000+0 -13770-2 0  9991",
        "tle_line2": "2 66807  42.9976 255.9971 0002113 292.5493  67.5158 15.89214605  1739"
      },
      "geometry": {
        "type": "Point",
        "coordinates": [
          -128.31244687875108,
          -19.543612331854625
        ]
      }
    },
    {
      "type": "Feature",
      "properties": {
        "norad_id": 66808,
        "name": "STARLINK-36071",
        "group": "last-30-days",
        "lat": -18.237714010689224,
        "lon": -126.63448544169619,
        "alt_km": 306.4344127834911,
        "timestamp": "2025-12-12T09:49:07.482652+00:00",
        "meta_object_name": "STARLINK-36071",
        "meta_object_id": "2025-278T",
        "meta_epoch": "2025-12-12T03:53:57.351840",
        "meta_mean_motion": 15.89105993,
        "meta_eccentricity": 0.0001895,
        "meta_inclination": 42.9974,
        "meta_ra_of_asc_node": 255.6044,
        "meta_arg_of_pericenter": 272.2162,
        "meta_mean_anomaly": 87.8495,
        "meta_ephemeris_type": 0,
        "meta_classification_type": "U",
        "meta_norad_cat_id": 66808,
        "meta_element_set_no": 999,
        "meta_rev_at_epoch": 174,
        "meta_bstar": -0.0012736,
        "meta_mean_motion_dot": -0.00364082,
        "meta_mean_motion_ddot": 0,
        "tle_line1": "1 66808U 25278T   25346.16246935 -.00364082  00000+0 -12736-2 0  9993",
        "tle_line2": "2 66808  42.9974 255.6044 0001895 272.2162  87.8495 15.89105993  1749"
      },
      "geometry": {
        "type": "Point",
        "coordinates": [
          -126.63448544169619,
          -18.237714010689224
        ]
      }
    }
  ]
}